[{"OBJECT_NAME":"RANGE-A","OBJECT_ID":"2018-099R","EPOCH":"2026-03-09T16:56:29.908608","MEAN_MOTION":15.1245864,"ECCENTRICITY":0.00096737,"INCLINATION":97.4107,"RA_OF_ASC_NODE":114.1927,"ARG_OF_PERICENTER":340.4473,"MEAN_ANOMALY":19.6386,"EPHEMERIS_TYPE":0,"CLASSIFICATION_TYPE":"U","NORAD_CAT_ID":43773,"ELEMENT_SET_NO":999,"REV_AT_EPOCH":39745,"BSTAR":0.00032165687,"MEAN_MOTION_DOT":5.536e-5,"MEAN_MOTION_DDOT":0},{"OBJECT_NAME":"STARLINK-3113","OBJECT_ID":"2021-115M","EPOCH":"2026-03-09T12:12:22.797216","MEAN_MOTION":15.08842889,"ECCENTRICITY":0.00012226,"INCLINATION":53.2161,"RA_OF_ASC_NODE":159.8171,"ARG_OF_PERICENTER":105.186,"MEAN_ANOMALY":254.9268,"EPHEMERIS_TYPE":0,"CLASSIFICATION_TYPE":"U","NORAD_CAT_ID":49735,"ELEMENT_SET_NO":999,"REV_AT_EPOCH":23536,"BSTAR":-3.4922094e-5,"MEAN_MOTION_DOT":-8.44e-6,"MEAN_MOTION_DDOT":0}]
